{"fetched_at":"2026-07-21T17:53:05.430Z","source":"https://celestrak.org/NORAD/elements/gp.php?GROUP=oneweb&FORMAT=JSON","constellation":"oneweb","records":[{"OBJECT_NAME":"ONEWEB-0602","OBJECT_ID":"2022-166AA","EPOCH":"2026-07-21T03:19:05.121408","CLASSIFICATION_TYPE":"U","MEAN_MOTION":13.21824385,"ECCENTRICITY":0.00019797,"INCLINATION":87.9227,"RA_OF_ASC_NODE":237.2428,"ARG_OF_PERICENTER":101.8937,"MEAN_ANOMALY":258.2419,"EPHEMERIS_TYPE":0,"NORAD_CAT_ID":54666,"ELEMENT_SET_NO":999,"REV_AT_EPOCH":17603,"BSTAR":0.00010849823,"MEAN_MOTION_DOT":5.8e-7,"MEAN_MOTION_DDOT":0},{"OBJECT_NAME":"ONEWEB-0603","OBJECT_ID":"2022-166AB","EPOCH":"2026-07-21T03:27:33.506784","CLASSIFICATION_TYPE":"U","MEAN_MOTION":13.21823854,"ECCENTRICITY":0.00019759,"INCLINATION":87.9236,"RA_OF_ASC_NODE":237.2017,"ARG_OF_PERICENTER":95.9558,"MEAN_ANOMALY":264.1801,"EPHEMERIS_TYPE":0,"NORAD_CAT_ID":54667,"ELEMENT_SET_NO":999,"REV_AT_EPOCH":17596,"BSTAR":0.000059168261,"MEAN_MOTION_DOT":3.7e-7,"MEAN_MOTION_DDOT":0},{"OBJECT_NAME":"ONEWEB-0604","OBJECT_ID":"2022-166AC","EPOCH":"2026-07-21T03:10:36.132096","CLASSIFICATION_TYPE":"U","MEAN_MOTION":13.21823925,"ECCENTRICITY":0.00020932,"INCLINATION":87.924,"RA_OF_ASC_NODE":237.2204,"ARG_OF_PERICENTER":96.5933,"MEAN_ANOMALY":263.5439,"EPHEMERIS_TYPE":0,"NORAD_CAT_ID":54668,"ELEMENT_SET_NO":999,"REV_AT_EPOCH":17592,"BSTAR":0.00022287128,"MEAN_MOTION_DOT":0.00000105,"MEAN_MOTION_DDOT":0},{"OBJECT_NAME":"ONEWEB-0605","OBJECT_ID":"2022-166AD","EPOCH":"2026-07-21T03:00:54.848448","CLASSIFICATION_TYPE":"U","MEAN_MOTION":13.21823931,"ECCENTRICITY":0.00017189,"INCLINATION":87.9229,"RA_OF_ASC_NODE":237.2319,"ARG_OF_PERICENTER":79.2034,"MEAN_ANOMALY":280.9293,"EPHEMERIS_TYPE":0,"NORAD_CAT_ID":54669,"ELEMENT_SET_NO":999,"REV_AT_EPOCH":17599,"BSTAR":0.000053513866,"MEAN_MOTION_DOT":3.5e-7,"MEAN_MOTION_DDOT":0},{"OBJECT_NAME":"ONEWEB-0606","OBJECT_ID":"2022-166AE","EPOCH":"2026-07-21T03:32:24.069984","CLASSIFICATION_TYPE":"U","MEAN_MOTION":13.21825591,"ECCENTRICITY":0.00021901,"INCLINATION":87.9228,"RA_OF_ASC_NODE":237.2399,"ARG_OF_PERICENTER":97.6338,"MEAN_ANOMALY":262.5044,"EPHEMERIS_TYPE":0,"NORAD_CAT_ID":54670,"ELEMENT_SET_NO":999,"REV_AT_EPOCH":17605,"BSTAR":0.000014117974,"MEAN_MOTION_DOT":1.9e-7,"MEAN_MOTION_DDOT":0},{"OBJECT_NAME":"ONEWEB-0607","OBJECT_ID":"2022-166AF","EPOCH":"2026-07-21T02:43:58.469952","CLASSIFICATION_TYPE":"U","MEAN_MOTION":13.2182595,"ECCENTRICITY":0.00019264,"INCLINATION":87.9235,"RA_OF_ASC_NODE":237.2199,"ARG_OF_PERICENTER":97.3428,"MEAN_ANOMALY":262.7925,"EPHEMERIS_TYPE":0,"NORAD_CAT_ID":54671,"ELEMENT_SET_NO":999,"REV_AT_EPOCH":17602,"BSTAR":-0.000091835823,"MEAN_MOTION_DOT":-2.5e-7,"MEAN_MOTION_DDOT":0},{"OBJECT_NAME":"ONEWEB-0608","OBJECT_ID":"2022-166AG","EPOCH":"2026-07-21T02:53:38.511168","CLASSIFICATION_TYPE":"U","MEAN_MOTION":13.21824363,"ECCENTRICITY":0.00015366,"INCLINATION":87.9241,"RA_OF_ASC_NODE":237.2164,"ARG_OF_PERICENTER":87.1048,"MEAN_ANOMALY":273.0261,"EPHEMERIS_TYPE":0,"NORAD_CAT_ID":54672,"ELEMENT_SET_NO":999,"REV_AT_EPOCH":17603,"BSTAR":0.00021180421,"MEAN_MOTION_DOT":0.000001,"MEAN_MOTION_DDOT":0},{"OBJECT_NAME":"ONEWEB-0610","OBJECT_ID":"2022-166AH","EPOCH":"2026-07-21T02:24:35.749728","CLASSIFICATION_TYPE":"U","MEAN_MOTION":13.21825713,"ECCENTRICITY":0.00014475,"INCLINATION":87.923,"RA_OF_ASC_NODE":237.2311,"ARG_OF_PERICENTER":97.6442,"MEAN_ANOMALY":262.4856,"EPHEMERIS_TYPE":0,"NORAD_CAT_ID":54673,"ELEMENT_SET_NO":999,"REV_AT_EPOCH":17593,"BSTAR":-0.000048790453,"MEAN_MOTION_DOT":-7e-8,"MEAN_MOTION_DDOT":0},{"OBJECT_NAME":"ONEWEB-0611","OBJECT_ID":"2022-166AJ","EPOCH":"2026-07-21T02:14:52.293120","CLASSIFICATION_TYPE":"U","MEAN_MOTION":13.21824102,"ECCENTRICITY":0.00021469,"INCLINATION":87.9226,"RA_OF_ASC_NODE":237.2281,"ARG_OF_PERICENTER":94.9971,"MEAN_ANOMALY":265.1408,"EPHEMERIS_TYPE":0,"NORAD_CAT_ID":54674,"ELEMENT_SET_NO":999,"REV_AT_EPOCH":17592,"BSTAR":-0.00011337232,"MEAN_MOTION_DOT":-3.4e-7,"MEAN_MOTION_DDOT":0},{"OBJECT_NAME":"ONEWEB-0612","OBJECT_ID":"2022-166AK","EPOCH":"2026-07-21T02:34:16.096800","CLASSIFICATION_TYPE":"U","MEAN_MOTION":13.21827301,"ECCENTRICITY":0.0001873,"INCLINATION":87.9242,"RA_OF_ASC_NODE":237.2249,"ARG_OF_PERICENTER":94.0976,"MEAN_ANOMALY":266.0372,"EPHEMERIS_TYPE":0,"NORAD_CAT_ID":54675,"ELEMENT_SET_NO":999,"REV_AT_EPOCH":17591,"BSTAR":0.000041036121,"MEAN_MOTION_DOT":3e-7,"MEAN_MOTION_DDOT":0},{"OBJECT_NAME":"ONEWEB-0615","OBJECT_ID":"2022-166AL","EPOCH":"2026-07-21T03:54:12.272256","CLASSIFICATION_TYPE":"U","MEAN_MOTION":13.21823765,"ECCENTRICITY":0.00022521,"INCLINATION":87.9231,"RA_OF_ASC_NODE":237.2255,"ARG_OF_PERICENTER":99.2616,"MEAN_ANOMALY":260.8773,"EPHEMERIS_TYPE":0,"NORAD_CAT_ID":54676,"ELEMENT_SET_NO":999,"REV_AT_EPOCH":17593,"BSTAR":-0.00024513886,"MEAN_MOTION_DOT":-8.8e-7,"MEAN_MOTION_DDOT":0},{"OBJECT_NAME":"ONEWEB-0655","OBJECT_ID":"2022-166AM","EPOCH":"2026-07-21T03:20:17.833920","CLASSIFICATION_TYPE":"U","MEAN_MOTION":13.21823967,"ECCENTRICITY":0.00019383,"INCLINATION":87.9228,"RA_OF_ASC_NODE":237.2309,"ARG_OF_PERICENTER":100.9144,"MEAN_ANOMALY":259.2208,"EPHEMERIS_TYPE":0,"NORAD_CAT_ID":54677,"ELEMENT_SET_NO":999,"REV_AT_EPOCH":17592,"BSTAR":-0.000016268648,"MEAN_MOTION_DOT":6e-8,"MEAN_MOTION_DDOT":0},{"OBJECT_NAME":"ONEWEB-0659","OBJECT_ID":"2022-166AN","EPOCH":"2026-07-21T01:55:31.121184","CLASSIFICATION_TYPE":"U","MEAN_MOTION":13.21825418,"ECCENTRICITY":0.00020236,"INCLINATION":87.923,"RA_OF_ASC_NODE":237.2421,"ARG_OF_PERICENTER":93.3311,"MEAN_ANOMALY":266.8054,"EPHEMERIS_TYPE":0,"NORAD_CAT_ID":54678,"ELEMENT_SET_NO":999,"REV_AT_EPOCH":17600,"BSTAR":-0.000090238969,"MEAN_MOTION_DOT":-2.4e-7,"MEAN_MOTION_DDOT":0},{"OBJECT_NAME":"ONEWEB-0685","OBJECT_ID":"2022-166AP","EPOCH":"2026-07-21T03:43:18.236352","CLASSIFICATION_TYPE":"U","MEAN_MOTION":13.22094543,"ECCENTRICITY":0.00023236,"INCLINATION":87.9228,"RA_OF_ASC_NODE":237.2181,"ARG_OF_PERICENTER":61.6133,"MEAN_ANOMALY":298.5235,"EPHEMERIS_TYPE":0,"NORAD_CAT_ID":54679,"ELEMENT_SET_NO":999,"REV_AT_EPOCH":17590,"BSTAR":0.064716902,"MEAN_MOTION_DOT":0.00026928,"MEAN_MOTION_DDOT":0},{"OBJECT_NAME":"ONEWEB-0712","OBJECT_ID":"2022-166AQ","EPOCH":"2026-07-21T02:33:33.549120","CLASSIFICATION_TYPE":"U","MEAN_MOTION":13.16596294,"ECCENTRICITY":0.00019136,"INCLINATION":87.9077,"RA_OF_ASC_NODE":222.0371,"ARG_OF_PERICENTER":106.7708,"MEAN_ANOMALY":253.3633,"EPHEMERIS_TYPE":0,"NORAD_CAT_ID":54680,"ELEMENT_SET_NO":999,"REV_AT_EPOCH":17652,"BSTAR":0.000029746327,"MEAN_MOTION_DOT":2.4e-7,"MEAN_MOTION_DDOT":0},{"OBJECT_NAME":"ONEWEB-0714","OBJECT_ID":"2022-166AR","EPOCH":"2026-07-21T03:51:47.955744","CLASSIFICATION_TYPE":"U","MEAN_MOTION":13.21825356,"ECCENTRICITY":0.00021053,"INCLINATION":87.9228,"RA_OF_ASC_NODE":237.2156,"ARG_OF_PERICENTER":103.9024,"MEAN_ANOMALY":256.2344,"EPHEMERIS_TYPE":0,"NORAD_CAT_ID":54681,"ELEMENT_SET_NO":999,"REV_AT_EPOCH":17602,"BSTAR":0.000005353164,"MEAN_MOTION_DOT":1.5e-7,"MEAN_MOTION_DDOT":0},{"OBJECT_NAME":"ONEWEB-0532","OBJECT_ID":"2023-004A","EPOCH":"2026-07-21T03:04:06.021408","CLASSIFICATION_TYPE":"U","MEAN_MOTION":13.17649293,"ECCENTRICITY":0.000184,"INCLINATION":87.9154,"RA_OF_ASC_NODE":359.1121,"ARG_OF_PERICENTER":82.5243,"MEAN_ANOMALY":277.6098,"EPHEMERIS_TYPE":0,"NORAD_CAT_ID":55140,"ELEMENT_SET_NO":999,"REV_AT_EPOCH":17205,"BSTAR":0.00029698869,"MEAN_MOTION_DOT":0.00000128,"MEAN_MOTION_DDOT":0},{"OBJECT_NAME":"ONEWEB-0533","OBJECT_ID":"2023-004B","EPOCH":"2026-07-20T22:12:45.773856","CLASSIFICATION_TYPE":"U","MEAN_MOTION":13.12442283,"ECCENTRICITY":0.00016563,"INCLINATION":87.8972,"RA_OF_ASC_NODE":343.9629,"ARG_OF_PERICENTER":98.2208,"MEAN_ANOMALY":261.9108,"EPHEMERIS_TYPE":0,"NORAD_CAT_ID":55141,"ELEMENT_SET_NO":999,"REV_AT_EPOCH":17248,"BSTAR":0.0011523812,"MEAN_MOTION_DOT":0.00000427,"MEAN_MOTION_DDOT":0},{"OBJECT_NAME":"ONEWEB-0541","OBJECT_ID":"2023-004C","EPOCH":"2026-07-21T05:03:21.061152","CLASSIFICATION_TYPE":"U","MEAN_MOTION":13.1141841,"ECCENTRICITY":0.00019852,"INCLINATION":87.8896,"RA_OF_ASC_NODE":14.2856,"ARG_OF_PERICENTER":88.7974,"MEAN_ANOMALY":271.3381,"EPHEMERIS_TYPE":0,"NORAD_CAT_ID":55142,"ELEMENT_SET_NO":999,"REV_AT_EPOCH":17040,"BSTAR":-0.00083016345,"MEAN_MOTION_DOT":-0.00000282,"MEAN_MOTION_DDOT":0},{"OBJECT_NAME":"ONEWEB-0543","OBJECT_ID":"2023-004D","EPOCH":"2026-07-20T20:28:22.037376","CLASSIFICATION_TYPE":"U","MEAN_MOTION":13.18686927,"ECCENTRICITY":0.00019453,"INCLINATION":87.9191,"RA_OF_ASC_NODE":328.7741,"ARG_OF_PERICENTER":105.7937,"MEAN_ANOMALY":254.3409,"EPHEMERIS_TYPE":0,"NORAD_CAT_ID":55143,"ELEMENT_SET_NO":999,"REV_AT_EPOCH":17413,"BSTAR":0.00012122233,"MEAN_MOTION_DOT":6.1e-7,"MEAN_MOTION_DDOT":0},{"OBJECT_NAME":"ONEWEB-0544","OBJECT_ID":"2023-004E","EPOCH":"2026-07-20T20:18:39.341952","CLASSIFICATION_TYPE":"U","MEAN_MOTION":13.1868463,"ECCENTRICITY":0.00021124,"INCLINATION":87.9193,"RA_OF_ASC_NODE":328.7748,"ARG_OF_PERICENTER":101.4382,"MEAN_ANOMALY":258.6988,"EPHEMERIS_TYPE":0,"NORAD_CAT_ID":55144,"ELEMENT_SET_NO":999,"REV_AT_EPOCH":17413,"BSTAR":-0.000021669666,"MEAN_MOTION_DOT":4e-8,"MEAN_MOTION_DDOT":0},{"OBJECT_NAME":"ONEWEB-0560","OBJECT_ID":"2023-004F","EPOCH":"2026-07-20T21:58:13.062144","CLASSIFICATION_TYPE":"U","MEAN_MOTION":13.18685792,"ECCENTRICITY":0.00021317,"INCLINATION":87.9192,"RA_OF_ASC_NODE":328.7507,"ARG_OF_PERICENTER":104.1459,"MEAN_ANOMALY":255.991,"EPHEMERIS_TYPE":0,"NORAD_CAT_ID":55145,"ELEMENT_SET_NO":999,"REV_AT_EPOCH":17415,"BSTAR":0.00010558744,"MEAN_MOTION_DOT":5.5e-7,"MEAN_MOTION_DDOT":0},{"OBJECT_NAME":"ONEWEB-0565","OBJECT_ID":"2023-004G","EPOCH":"2026-07-21T01:27:01.761984","CLASSIFICATION_TYPE":"U","MEAN_MOTION":13.18684826,"ECCENTRICITY":0.00022543,"INCLINATION":87.9183,"RA_OF_ASC_NODE":328.7467,"ARG_OF_PERICENTER":92.2779,"MEAN_ANOMALY":267.8612,"EPHEMERIS_TYPE":0,"NORAD_CAT_ID":55146,"ELEMENT_SET_NO":999,"REV_AT_EPOCH":17416,"BSTAR":-0.000069413744,"MEAN_MOTION_DOT":-1.4e-7,"MEAN_MOTION_DDOT":0}]}
